[{"OBJECT_NAME":"SHIJIAN-6 01A (SJ-6 01A)","OBJECT_ID":"2004-035A","EPOCH":"2026-03-09T23:26:31.260480","MEAN_MOTION":15.1644809,"ECCENTRICITY":0.0008065,"INCLINATION":97.598,"RA_OF_ASC_NODE":95.8752,"ARG_OF_PERICENTER":114.4113,"MEAN_ANOMALY":245.7962,"EPHEMERIS_TYPE":0,"CLASSIFICATION_TYPE":"U","NORAD_CAT_ID":28413,"ELEMENT_SET_NO":999,"REV_AT_EPOCH":17242,"BSTAR":0.00047768034,"MEAN_MOTION_DOT":9.235e-5,"MEAN_MOTION_DDOT":0},{"OBJECT_NAME":"EUCROPIS","OBJECT_ID":"2018-099BB","EPOCH":"2026-03-09T17:11:26.691360","MEAN_MOTION":15.19070978,"ECCENTRICITY":0.00039821,"INCLINATION":97.4349,"RA_OF_ASC_NODE":126.0391,"ARG_OF_PERICENTER":286.1281,"MEAN_ANOMALY":73.9515,"EPHEMERIS_TYPE":0,"CLASSIFICATION_TYPE":"U","NORAD_CAT_ID":43807,"ELEMENT_SET_NO":999,"REV_AT_EPOCH":39735,"BSTAR":0.00041485658,"MEAN_MOTION_DOT":8.636e-5,"MEAN_MOTION_DDOT":0}]
